NORAD_CAT_ID,OBJECT_NAME,OBJECT_TYPE,EPOCH,MEAN_MOTION,ECCENTRICITY,INCLINATION,RA_OF_ASC_NODE,ARG_OF_PERICENTER,MEAN_ANOMALY,BSTAR,MEAN_MOTION_DOT,MEAN_MOTION_DDOT,TLE_LINE0,TLE_LINE1,TLE_LINE2,SEMIMAJOR_AXIS,PERIOD,APOGEE,PERIGEE,DECAYED
52497.0,STARLINK-3884,PAYLOAD,2023-10-01 17:58:29,15.08853303,0.0001364,53.2172,84.2179,90.6209,269.494,0.0001565,2.205e-05,0.0,0 STARLINK-3884,1 52497U 22049AY  23274.74895571  .00002205  00000-0  15650-3 0  9997,2 52497  53.2172  84.2179 0001364  90.6209 269.4940 15.08853303 78049,6917.84,95.437,540.648,538.761,0.0
52497.0,STARLINK-3884,PAYLOAD,2023-10-02 11:27:44,15.08839674,0.0001268,53.2165,80.9461,79.8441,280.2694,0.0001186,1.6e-05,0.0,0 STARLINK-3884,1 52497U 22049AY  23275.47760305  .00001600  00000-0  11860-3 0  9991,2 52497  53.2165  80.9461 0001268  79.8441 280.2694 15.08839674 78310,6917.881,95.438,540.624,538.869,0.0
52497.0,STARLINK-3884,PAYLOAD,2023-10-02 17:49:17,15.08842001,0.0001287,53.2173,79.7559,85.0226,275.0914,7.6708e-05,9.33e-06,0.0,0 STARLINK-3884,1 52497U 22049AY  23275.74256152  .00000933  00000-0  76708-4 0  9992,2 52497  53.2173  79.7559 0001287  85.0226 275.0914 15.08842001 78195,6917.874,95.437,540.63,538.849,0.0
52497.0,STARLINK-3884,PAYLOAD,2023-10-03 14:29:18,15.08836671,0.0001445,53.2179,75.8916,96.8822,263.2335,-5.449e-05,-1.155e-05,0.0,0 STARLINK-3884,1 52497U 22049AY  23276.60368413 -.00001155  00000-0 -54490-4 0  9995,2 52497  53.2179  75.8916 0001445  96.8822 263.2335 15.08836671 78320,6917.891,95.438,540.755,538.756,0.0
52497.0,STARLINK-3884,PAYLOAD,2023-10-03 17:40:04,15.08844887,0.0001346,53.2187,75.3003,87.7314,272.3832,6.0405e-05,6.74e-06,0.0,0 STARLINK-3884,1 52497U 22049AY  23276.73616045  .00000674  00000-0  60405-4 0  9992,2 52497  53.2187  75.3003 0001346  87.7314 272.3832 15.08844887 78507,6917.865,95.437,540.662,538.799,0.0
52497.0,STARLINK-3884,PAYLOAD,2023-10-04 14:20:05,15.08841901,0.0001565,53.2181,71.431,93.8121,266.305,0.00011873,1.602e-05,0.0,0 STARLINK-3884,1 52497U 22049AY  23277.59728177  .00001602  00000-0  11873-3 0  9993,2 52497  53.2181  71.4310 0001565  93.8121 266.3050 15.08841901 78471,6917.875,95.437,540.822,538.657,0.0
52497.0,STARLINK-3884,PAYLOAD,2023-10-04 17:30:51,15.08848692,0.0001377,53.2181,70.8388,76.7469,283.3677,0.00023066,3.386e-05,0.0,0 STARLINK-3884,1 52497U 22049AY  23277.72975921  .00003386  00000-0  23066-3 0  9997,2 52497  53.2181  70.8388 0001377  76.7469 283.3677 15.08848692 78495,6917.854,95.437,540.671,538.766,0.0
52497.0,STARLINK-3884,PAYLOAD,2023-10-04 20:41:37,15.08854048,0.0001406,53.2184,70.2436,78.3856,281.7294,0.00034471,5.204e-05,0.0,0 STARLINK-3884,1 52497U 22049AY  23277.86223711  .00005204  00000-0  34471-3 0  9998,2 52497  53.2184  70.2436 0001406  78.3856 281.7294 15.08854048 78676,6917.837,95.437,540.675,538.73,0.0
52497.0,STARLINK-3884,PAYLOAD,2023-10-05 11:00:06,15.08834139,0.0001407,53.2174,67.5671,86.1665,273.9488,4.7807e-06,-2.12e-06,0.0,0 STARLINK-3884,1 52497U 22049AY  23278.45840654 -.00000212  00000-0  47807-5 0  9999,2 52497  53.2174  67.5671 0001407  86.1665 273.9488 15.08834139 78768,6917.898,95.438,540.737,538.79,0.0
52497.0,STARLINK-3884,PAYLOAD,2023-10-05 17:21:38,15.08844988,0.0001463,53.2186,66.3804,90.529,269.587,0.00024841,3.668e-05,0.0,0 STARLINK-3884,1 52497U 22049AY  23278.72336418  .00003668  00000-0  24841-3 0  9995,2 52497  53.2186  66.3804 0001463  90.5290 269.5870 15.08844988 78805,6917.865,95.437,540.742,538.718,0.0
52497.0,STARLINK-3884,PAYLOAD,2023-10-05 22:07:47,15.0885923,0.0001505,53.2175,65.4861,89.9792,270.1373,0.00060887,9.421e-05,0.0,0 STARLINK-3884,1 52497U 22049AY  23278.92208055  .00009421  00000-0  60887-3 0  9995,2 52497  53.2175  65.4861 0001505  89.9792 270.1373 15.08859230 78837,6917.822,95.436,540.728,538.645,0.0
52497.0,STARLINK-3884,PAYLOAD,2023-10-06 14:01:39,15.08837282,0.0001,53.218,62.5129,82.3535,277.757,0.00050623,7.777e-05,0.0,0 STARLINK-3884,1 52497U 22049AY  23279.58448936  .00007777  00000-0  50623-3 0  9991,2 52497  53.2180  62.5129 0001000  82.3535 277.7570 15.08837282 78778,6917.889,95.438,540.445,539.062,0.0
52497.0,STARLINK-3884,PAYLOAD,2023-10-06 17:12:26,15.08844926,0.0001517,53.2176,61.9187,76.2648,283.8513,0.0016584,0.00026208,0.0,0 STARLINK-3884,1 52497U 22049AY  23279.71697108  .00026208  00000-0  16584-2 0  9990,2 52497  53.2176  61.9187 0001517  76.2648 283.8513 15.08844926 78958,6917.865,95.437,540.78,538.681,0.0
52497.0,STARLINK-3884,PAYLOAD,2023-10-07 04:20:08,15.08828938,8.91e-05,53.2176,59.837,83.9835,276.1259,0.00053991,8.313e-05,0.0,0 STARLINK-3884,1 52497U 22049AY  23280.18065251  .00008313  00000-0  53991-3 0  9992,2 52497  53.2176  59.8370 0000891  83.9835 276.1259 15.08828938 79021,6917.914,95.438,540.396,539.163,0.0
52497.0,STARLINK-3884,PAYLOAD,2023-10-07 13:52:27,15.08854036,0.0001282,53.2168,58.0519,83.189,276.9248,0.0018654,0.00029536,0.0,0 STARLINK-3884,1 52497U 22049AY  23280.57809140  .00029536  00000-0  18654-2 0  9994,2 52497  53.2168  58.0519 0001282  83.1890 276.9248 15.08854036 78928,6917.837,95.437,540.589,538.816,0.0
52497.0,STARLINK-3884,PAYLOAD,2023-10-07 18:38:36,15.0886206,0.000127,53.217,57.1592,82.6988,277.4148,0.002063,0.00032717,0.0,0 STARLINK-3884,1 52497U 22049AY  23280.77680921  .00032717  00000-0  20630-2 0  9992,2 52497  53.2170  57.1592 0001270  82.6988 277.4148 15.08862060 79114,6917.813,95.436,540.557,538.799,0.0
52497.0,STARLINK-3884,PAYLOAD,2023-10-08 02:35:31,15.0884973,0.0001155,53.2181,55.6689,110.0072,250.1045,0.00055932,8.627e-05,0.0,0 STARLINK-3884,1 52497U 22049AY  23281.10800811  .00008627  00000-0  55932-3 0  9999,2 52497  53.2181  55.6689 0001155 110.0072 250.1045 15.08849730 79166,6917.851,95.437,540.515,538.917,0.0
52497.0,STARLINK-3884,PAYLOAD,2023-10-08 13:43:14,15.08846451,0.0001864,53.2184,53.5882,98.7759,261.3444,0.00085625,0.00013368,0.0,0 STARLINK-3884,1 52497U 22049AY  23281.57169147  .00013368  00000-0  85625-3 0  9990,2 52497  53.2184  53.5882 0001864  98.7759 261.3444 15.08846451 79076,6917.861,95.437,541.015,538.436,0.0
52497.0,STARLINK-3884,PAYLOAD,2023-10-08 20:04:46,15.0886191,0.0001698,53.2189,52.3998,99.9746,260.1438,0.00091339,0.00014287,0.0,0 STARLINK-3884,1 52497U 22049AY  23281.83664715  .00014287  00000-0  91339-3 0  9990,2 52497  53.2189  52.3998 0001698  99.9746 260.1438 15.08861910 79112,6917.813,95.436,540.853,538.504,0.0
52497.0,STARLINK-3884,PAYLOAD,2023-10-09 02:26:19,15.08841455,0.0001303,53.2185,51.211,107.2739,252.8396,0.00016303,2.308e-05,0.0,0 STARLINK-3884,1 52497U 22049AY  23282.10160983  .00002308  00000-0  16303-3 0  9998,2 52497  53.2185  51.2110 0001303 107.2739 252.8396 15.08841455 79315,6917.876,95.437,540.642,538.84,0.0
52497.0,STARLINK-3884,PAYLOAD,2023-10-09 13:34:01,15.08849411,0.0001514,53.2174,49.1305,101.5878,258.5284,0.00065679,0.00010183,0.0,0 STARLINK-3884,1 52497U 22049AY  23282.56529120  .00010183  00000-0  65679-3 0  9990,2 52497  53.2174  49.1305 0001514 101.5878 258.5284 15.08849411 79229,6917.852,95.437,540.764,538.669,0.0
52497.0,STARLINK-3884,PAYLOAD,2023-10-09 19:55:33,15.08864888,0.0001599,53.2177,47.9418,96.3249,263.7926,0.001862,0.0002949,0.0,0 STARLINK-3884,1 52497U 22049AY  23282.83024871  .00029490  00000-0  18620-2 0  9997,2 52497  53.2177  47.9418 0001599  96.3249 263.7926 15.08864888 79269,6917.804,95.436,540.775,538.563,0.0
52497.0,STARLINK-3884,PAYLOAD,2023-10-10 13:24:47,15.08869814,0.0001482,53.2187,44.6701,91.317,268.7992,0.0019818,0.00031419,0.0,0 STARLINK-3884,1 52497U 22049AY  23283.55888687  .00031419  00000-0  19818-2 0  9994,2 52497  53.2187  44.6701 0001482  91.3170 268.7992 15.08869814 79372,6917.789,95.436,540.679,538.629,0.0
52497.0,STARLINK-3884,PAYLOAD,2023-10-10 18:10:56,15.08879128,0.0001454,53.2187,43.7783,74.6304,285.4849,0.0022165,0.00035202,0.0,0 STARLINK-3884,1 52497U 22049AY  23283.75760354  .00035202  00000-0  22165-2 0  9999,2 52497  53.2187  43.7783 0001454  74.6304 285.4849 15.08879128 79561,6917.761,95.435,540.632,538.62,0.0
52497.0,STARLINK-3884,PAYLOAD,2023-10-10 19:46:19,15.08882988,0.0001492,53.2187,43.4813,76.0005,284.1153,0.0021041,0.00033397,0.0,0 STARLINK-3884,1 52497U 22049AY  23283.82384154  .00033397  00000-0  21041-2 0  9992,2 52497  53.2187  43.4813 0001492  76.0005 284.1153 15.08882988 79414,6917.749,95.435,540.646,538.582,0.0
52497.0,STARLINK-3884,PAYLOAD,2023-10-11 08:29:25,15.08827367,0.0001397,53.218,41.1025,87.4581,272.6571,0.00051865,7.973e-05,0.0,0 STARLINK-3884,1 52497U 22049AY  23284.35377085  .00007973  00000-0  51865-3 0  9995,2 52497  53.2180  41.1025 0001397  87.4581 272.6571 15.08827367 79658,6917.919,95.438,540.75,538.818,0.0
52497.0,STARLINK-3884,PAYLOAD,2023-10-11 13:15:35,15.08843791,0.0001433,53.2188,40.2107,85.1947,274.9209,0.0019603,0.00031051,0.0,0 STARLINK-3884,1 52497U 22049AY  23284.55249226  .00031051  00000-0  19603-2 0  9999,2 52497  53.2188  40.2107 0001433  85.1947 274.9209 15.08843791 79527,6917.869,95.437,540.725,538.742,0.0
52497.0,STARLINK-3884,PAYLOAD,2023-10-11 14:50:58,15.08848009,0.0001352,53.2187,39.9129,85.1739,274.9407,0.0019085,0.00030223,0.0,0 STARLINK-3884,1 52497U 22049AY  23284.61873142  .00030223  00000-0  19085-2 0  9990,2 52497  53.2187  39.9129 0001352  85.1739 274.9407 15.08848009 79699,6917.856,95.437,540.656,538.786,0.0
52497.0,STARLINK-3884,PAYLOAD,2023-10-12 00:23:17,15.08836232,0.0001448,53.2187,38.1287,88.8709,271.2449,0.00078252,0.00012186,0.0,0 STARLINK-3884,1 52497U 22049AY  23285.01617381  .00012186  00000-0  78252-3 0  9996,2 52497  53.2187  38.1287 0001448  88.8709 271.2449 15.08836232 79756,6917.892,95.438,540.759,538.755,0.0
52497.0,STARLINK-3884,PAYLOAD,2023-10-12 14:41:45,15.08864334,0.0001331,53.2185,35.4531,96.4926,263.6217,0.0024006,0.0003815,0.0,0 STARLINK-3884,1 52497U 22049AY  23285.61233192  .00038150  00000-0  24006-2 0  9992,2 52497  53.2185  35.4531 0001331  96.4926 263.6217 15.08864334 79687,6917.806,95.436,540.592,538.75,0.0
